{
  "type": "FeatureCollection",
  "features": [
    {
      "type": "Feature",
      "properties": {
        "norad_id": 38060,
        "name": "COSMOS 2251 DEB",
        "group": "cosmos-2251-debris",
        "lat": 71.1699392981129,
        "lon": 43.56639495056901,
        "alt_km": 662.8185938171846,
        "timestamp": "2025-12-20T09:36:02.047181+00:00",
        "meta_object_name": "COSMOS 2251 DEB",
        "meta_object_id": "1993-036BRS",
        "meta_epoch": "2025-12-18T12:51:56.479104",
        "meta_mean_motion": 14.63889679,
        "meta_eccentricity": 0.00583817,
        "meta_inclination": 74.0432,
        "meta_ra_of_asc_node": 284.1799,
        "meta_arg_of_pericenter": 28.687,
        "meta_mean_anomaly": 331.7487,
        "meta_ephemeris_type": 0,
        "meta_classification_type": "U",
        "meta_norad_cat_id": 38060,
        "meta_element_set_no": 999,
        "meta_rev_at_epoch": 72049,
        "meta_bstar": 0.00043764509,
        "meta_mean_motion_dot": 2.314e-05,
        "meta_mean_motion_ddot": 0,
        "tle_line1": "1 38060U 93036BRS 25352.53607036  .00002314  00000+0  43765-3 0  9992",
        "tle_line2": "2 38060  74.0432 284.1799 0058381  28.6870 331.7487 14.63889679720491"
      },
      "geometry": {
        "type": "Point",
        "coordinates": [
          43.56639495056901,
          71.1699392981129
        ]
      }
    },
    {
      "type": "Feature",
      "properties": {
        "norad_id": 38062,
        "name": "COSMOS 2251 DEB",
        "group": "cosmos-2251-debris",
        "lat": -25.615101172026375,
        "lon": 102.89941207809828,
        "alt_km": 595.5537325791092,
        "timestamp": "2025-12-20T09:36:02.047192+00:00",
        "meta_object_name": "COSMOS 2251 DEB",
        "meta_object_id": "1993-036BRU",
        "meta_epoch": "2025-12-17T02:04:28.793568",
        "meta_mean_motion": 14.95076851,
        "meta_eccentricity": 0.00127653,
        "meta_inclination": 74.0085,
        "meta_ra_of_asc_node": 281.6883,
        "meta_arg_of_pericenter": 50.5623,
        "meta_mean_anomaly": 328.1429,
        "meta_ephemeris_type": 0,
        "meta_classification_type": "U",
        "meta_norad_cat_id": 38062,
        "meta_element_set_no": 999,
        "meta_rev_at_epoch": 63095,
        "meta_bstar": 0.0018936514,
        "meta_mean_motion_dot": 0.00020809,
        "meta_mean_motion_ddot": 0,
        "tle_line1": "1 38062U 93036BRU 25351.08644437  .00020809  00000+0  18937-2 0  9990",
        "tle_line2": "2 38062  74.0085 281.6883 0012765  50.5623 328.1429 14.95076851630951"
      },
      "geometry": {
        "type": "Point",
        "coordinates": [
          102.89941207809828,
          -25.615101172026375
        ]
      }
    },
    {
      "type": "Feature",
      "properties": {
        "norad_id": 38064,
        "name": "COSMOS 2251 DEB",
        "group": "cosmos-2251-debris",
        "lat": 40.14469957067724,
        "lon": -84.39042699334615,
        "alt_km": 701.3207637953874,
        "timestamp": "2025-12-20T09:36:02.047202+00:00",
        "meta_object_name": "COSMOS 2251 DEB",
        "meta_object_id": "1993-036BRW",
        "meta_epoch": "2025-12-19T18:07:41.080512",
        "meta_mean_motion": 14.56354752,
        "meta_eccentricity": 0.0047209,
        "meta_inclination": 74.0226,
        "meta_ra_of_asc_node": 110.8167,
        "meta_arg_of_pericenter": 229.1842,
        "meta_mean_anomaly": 130.5224,
        "meta_ephemeris_type": 0,
        "meta_classification_type": "U",
        "meta_norad_cat_id": 38064,
        "meta_element_set_no": 999,
        "meta_rev_at_epoch": 71967,
        "meta_bstar": 0.00064457855,
        "meta_mean_motion_dot": 2.872e-05,
        "meta_mean_motion_ddot": 0,
        "tle_line1": "1 38064U 93036BRW 25353.75533658  .00002872  00000+0  64458-3 0  9990",
        "tle_line2": "2 38064  74.0226 110.8167 0047209 229.1842 130.5224 14.56354752719677"
      },
      "geometry": {
        "type": "Point",
        "coordinates": [
          -84.39042699334615,
          40.14469957067724
        ]
      }
    },
    {
      "type": "Feature",
      "properties": {
        "norad_id": 38067,
        "name": "COSMOS 2251 DEB",
        "group": "cosmos-2251-debris",
        "lat": -65.18596044095696,
        "lon": 118.14894331728158,
        "alt_km": 740.7967712408908,
        "timestamp": "2025-12-20T09:36:02.047212+00:00",
        "meta_object_name": "COSMOS 2251 DEB",
        "meta_object_id": "1993-036BRZ",
        "meta_epoch": "2025-12-20T00:18:38.289888",
        "meta_mean_motion": 14.61151533,
        "meta_eccentricity": 0.0069695,
        "meta_inclination": 74.0171,
        "meta_ra_of_asc_node": 260.5817,
        "meta_arg_of_pericenter": 46.2502,
        "meta_mean_anomaly": 329.5601,
        "meta_ephemeris_type": 0,
        "meta_classification_type": "U",
        "meta_norad_cat_id": 38067,
        "meta_element_set_no": 999,
        "meta_rev_at_epoch": 62662,
        "meta_bstar": 0.00024257,
        "meta_mean_motion_dot": 1.204e-05,
        "meta_mean_motion_ddot": 0,
        "tle_line1": "1 38067U 93036BRZ 25354.01294317  .00001204  00000+0  24257-3 0  9990",
        "tle_line2": "2 38067  74.0171 260.5817 0069695  46.2502 329.5601 14.61151533626627"
      },
      "geometry": {
        "type": "Point",
        "coordinates": [
          118.14894331728158,
          -65.18596044095696
        ]
      }
    },
    {
      "type": "Feature",
      "properties": {
        "norad_id": 38068,
        "name": "COSMOS 2251 DEB",
        "group": "cosmos-2251-debris",
        "lat": 40.010976695921464,
        "lon": -51.90145908389088,
        "alt_km": 752.1436163161352,
        "timestamp": "2025-12-20T09:36:02.047224+00:00",
        "meta_object_name": "COSMOS 2251 DEB",
        "meta_object_id": "1993-036BSA",
        "meta_epoch": "2025-11-26T00:12:22.263264",
        "meta_mean_motion": 14.35960004,
        "meta_eccentricity": 0.00240903,
        "meta_inclination": 74.0219,
        "meta_ra_of_asc_node": 338.9788,
        "meta_arg_of_pericenter": 72.1007,
        "meta_mean_anomaly": 288.2769,
        "meta_ephemeris_type": 0,
        "meta_classification_type": "U",
        "meta_norad_cat_id": 38068,
        "meta_element_set_no": 999,
        "meta_rev_at_epoch": 66406,
        "meta_bstar": 0.00028750999,
        "meta_mean_motion_dot": 8.11e-06,
        "meta_mean_motion_ddot": 0,
        "tle_line1": "1 38068U 93036BSA 25330.00859101  .00000811  00000+0  28751-3 0  9998",
        "tle_line2": "2 38068  74.0219 338.9788 0024090  72.1007 288.2769 14.35960004664064"
      },
      "geometry": {
        "type": "Point",
        "coordinates": [
          -51.90145908389088,
          40.010976695921464
        ]
      }
    },
    {
      "type": "Feature",
      "properties": {
        "norad_id": 38197,
        "name": "COSMOS 2251 DEB",
        "group": "cosmos-2251-debris",
        "lat": 4.865470912857629,
        "lon": -16.594078699923795,
        "alt_km": 723.0254011939314,
        "timestamp": "2025-12-20T09:36:02.047234+00:00",
        "meta_object_name": "COSMOS 2251 DEB",
        "meta_object_id": "1993-036BSM",
        "meta_epoch": "2025-12-19T05:53:32.639424",
        "meta_mean_motion": 14.74334957,
        "meta_eccentricity": 0.0125223,
        "meta_inclination": 73.937,
        "meta_ra_of_asc_node": 344.2677,
        "meta_arg_of_pericenter": 220.1663,
        "meta_mean_anomaly": 139.0206,
        "meta_ephemeris_type": 0,
        "meta_classification_type": "U",
        "meta_norad_cat_id": 38197,
        "meta_element_set_no": 999,
        "meta_rev_at_epoch": 85851,
        "meta_bstar": 0.0022874,
        "meta_mean_motion_dot": 0.00017202,
        "meta_mean_motion_ddot": 0,
        "tle_line1": "1 38197U 93036BSM 25353.24551666  .00017202  00000+0  22874-2 0  9998",
        "tle_line2": "2 38197  73.9370 344.2677 0125223 220.1663 139.0206 14.74334957858512"
      },
      "geometry": {
        "type": "Point",
        "coordinates": [
          -16.594078699923795,
          4.865470912857629
        ]
      }
    },
    {
      "type": "Feature",
      "properties": {
        "norad_id": 38199,
        "name": "COSMOS 2251 DEB",
        "group": "cosmos-2251-debris",
        "lat": 21.271514511555004,
        "lon": 56.03600725042089,
        "alt_km": 828.1856869520652,
        "timestamp": "2025-12-20T09:36:02.047244+00:00",
        "meta_object_name": "COSMOS 2251 DEB",
        "meta_object_id": "1993-036BSP",
        "meta_epoch": "2025-12-18T20:33:26.116992",
        "meta_mean_motion": 13.64802181,
        "meta_eccentricity": 0.0369926,
        "meta_inclination": 73.9559,
        "meta_ra_of_asc_node": 52.1388,
        "meta_arg_of_pericenter": 337.4029,
        "meta_mean_anomaly": 21.1146,
        "meta_ephemeris_type": 0,
        "meta_classification_type": "U",
        "meta_norad_cat_id": 38199,
        "meta_element_set_no": 999,
        "meta_rev_at_epoch": 61105,
        "meta_bstar": 0.00049100524,
        "meta_mean_motion_dot": 6.08e-06,
        "meta_mean_motion_ddot": 0,
        "tle_line1": "1 38199U 93036BSP 25352.85655228  .00000608  00000+0  49101-3 0  9990",
        "tle_line2": "2 38199  73.9559  52.1388 0369926 337.4029  21.1146 13.64802181611052"
      },
      "geometry": {
        "type": "Point",
        "coordinates": [
          56.03600725042089,
          21.271514511555004
        ]
      }
    }
  ]
}